GLOBALSTAR M001         
1 25162U 98008A   25186.70317442 -.00000079  00000+0  13649-3 0  9993
2 25162  52.0037 279.3334 0000959 277.3527 246.1304 12.38214257246009
GLOBALSTAR M004         
1 25163U 98008B   25186.92581039 -.00000092  00000+0  67111-4 0  9992
2 25163  52.0022 356.9848 0002752 348.6929 175.7613 12.63397651264050
GLOBALSTAR M002         
1 25164U 98008C   25186.32340322 -.00000040  00000+0  72612-3 0  9999
2 25164  51.9976 194.7307 0001445 192.8971 167.1812 11.61510774186171
GLOBALSTAR M003         
1 25165U 98008D   25186.19799543 -.00000133  00000+0 -46128-3 0  9995
2 25165  51.9978 118.6420 0008271 332.8206 169.4214 12.12072885235401
GLOBALSTAR M014         
1 25306U 98023A   25186.81366668 -.00000085  00000+0 -14670-3 0  9999
2 25306  51.9833 116.3334 0001521  28.3975   5.3208 11.65481467193342
GLOBALSTAR M006         
1 25307U 98023B   25186.93223699 -.00000054  00000+0  44457-3 0  9990
2 25307  51.9905 169.2069 0002848 139.9547 233.9676 11.58176720219007
GLOBALSTAR M015         
1 25308U 98023C   25186.69502024 -.00000087  00000+0 -30226-3 0  9992
2 25308  51.9819 269.1198 0012778 110.0495  59.4292 11.48860033196207
GLOBALSTAR M008         
1 25309U 98023D   25186.90730134 -.00000128  00000+0 -25493-3 0  9998
2 25309  51.9957 143.7793 0002315 218.8339 175.5605 12.36070484240477
